{"fetched_at":"2026-07-12T07:16:07.467Z","source":"https://celestrak.org/NORAD/elements/gp.php?NAME=WORLDVIEW&FORMAT=JSON","constellation":"worldview","records":[{"OBJECT_NAME":"WORLDVIEW-1 (WV-1)","OBJECT_ID":"2007-041A","EPOCH":"2026-07-11T21:47:02.316480","CLASSIFICATION_TYPE":"U","MEAN_MOTION":15.24535973,"ECCENTRICITY":0.00012224,"INCLINATION":97.3896,"RA_OF_ASC_NODE":312.3033,"ARG_OF_PERICENTER":224.231,"MEAN_ANOMALY":135.883,"EPHEMERIS_TYPE":0,"NORAD_CAT_ID":32060,"ELEMENT_SET_NO":999,"REV_AT_EPOCH":4664,"BSTAR":0.00014482053,"MEAN_MOTION_DOT":0.00003492,"MEAN_MOTION_DDOT":0},{"OBJECT_NAME":"WORLDVIEW-2 (WV-2)","OBJECT_ID":"2009-055A","EPOCH":"2026-07-11T22:28:22.966752","CLASSIFICATION_TYPE":"U","MEAN_MOTION":14.3790639,"ECCENTRICITY":0.0005177,"INCLINATION":98.4757,"RA_OF_ASC_NODE":266.0489,"ARG_OF_PERICENTER":137.738,"MEAN_ANOMALY":222.4207,"EPHEMERIS_TYPE":0,"NORAD_CAT_ID":35946,"ELEMENT_SET_NO":999,"REV_AT_EPOCH":87920,"BSTAR":0.000027035051,"MEAN_MOTION_DOT":3.8e-7,"MEAN_MOTION_DDOT":0},{"OBJECT_NAME":"WORLDVIEW-3 (WV-3)","OBJECT_ID":"2014-048A","EPOCH":"2026-07-11T21:29:41.235360","CLASSIFICATION_TYPE":"U","MEAN_MOTION":14.85061085,"ECCENTRICITY":0.00010495,"INCLINATION":97.8558,"RA_OF_ASC_NODE":267.3867,"ARG_OF_PERICENTER":160.908,"MEAN_ANOMALY":199.2174,"EPHEMERIS_TYPE":0,"NORAD_CAT_ID":40115,"ELEMENT_SET_NO":999,"REV_AT_EPOCH":64557,"BSTAR":0.000052645304,"MEAN_MOTION_DOT":0.00000396,"MEAN_MOTION_DDOT":0}]}
