WORLDVIEW-1 (WV-1)      
1 32060U 07041A   26192.90766570  .00003492  00000+0  14482-3 0  9992
2 32060  97.3896 312.3033 0001222 224.2310 135.8830 15.24535973 46643
WORLDVIEW-2 (WV-2)      
1 35946U 09055A   26192.93637693  .00000038  00000+0  27035-4 0  9993
2 35946  98.4757 266.0489 0005177 137.7380 222.4207 14.37906390879200
WORLDVIEW-3 (WV-3)      
1 40115U 14048A   26192.89561615  .00000396  00000+0  52645-4 0  9992
2 40115  97.8558 267.3867 0001049 160.9080 199.2174 14.85061085645570
